start=new Date('2023-05-01T00:00:00.000Z').valueOf();
sats=[{"ARG_OF_PERICENTER":"270.6463","OBJECT_NAME":"STARLINK-3088","INCLINATION":"70.0015","PERIOD":"96.107","MEAN_ANOMALY":"89.4369","RCS_SIZE":"LARGE","PERIAPSIS":"570.068","SITE":"AFWTR","EPHEMERIS_TYPE":"0","COUNTRY_CODE":"US","BSTAR":"-0.00003331400000","SEMIMAJOR_AXIS":"6950.188","ECCENTRICITY":"0.00028560","ELEMENT_SET_NO":"999","EPOCH":"2023-04-30T20:30:57.936672","NORAD_CAT_ID":"49163","TLE_LINE1":"1 49163U 21082AK  23120.85483723 -.00000490  00000-0 -33314-4 0  9997","CLASSIFICATION_TYPE":"U","LAUNCH_DATE":"2021-09-14","OBJECT_ID":"2021-082AK","MEAN_MOTION_DDOT":"0.0000000000000","APOAPSIS":"574.038","GP_ID":"230982096","OBJECT_TYPE":"PAYLOAD","CENTER_NAME":"EARTH","TIME_SYSTEM":"UTC","MEAN_ELEMENT_THEORY":"SGP4","MEAN_MOTION_DOT":"-0.00000490","DECAY_DATE":null,"REV_AT_EPOCH":"9128","TLE_LINE2":"2 49163  70.0015  26.3320 0002856 270.6463  89.4369 14.98331561 91283","MEAN_MOTION":"14.98331561","RA_OF_ASC_NODE":"26.3320","FILE":"3897540","REF_FRAME":"TEME"},{"RA_OF_ASC_NODE":"26.3636","FILE":"3897553","REV_AT_EPOCH":"9128","TLE_LINE2":"2 49164  70.0011  26.3636 0002826 272.5242  87.5594 14.98326978 91288","MEAN_MOTION":"14.98326978","MEAN_MOTION_DOT":"-0.00000746","DECAY_DATE":null,"MEAN_ELEMENT_THEORY":"SGP4","REF_FRAME":"TEME","GP_ID":"230982444","OBJECT_TYPE":"PAYLOAD","OBJECT_ID":"2021-082AL","MEAN_MOTION_DDOT":"0.0000000000000","APOAPSIS":"574.031","TLE_LINE1":"1 49164U 21082AL  23120.84649313 -.00000746  00000-0 -54757-4 0  9994","CLASSIFICATION_TYPE":"U","LAUNCH_DATE":"2021-09-14","NORAD_CAT_ID":"49164","TIME_SYSTEM":"UTC","CENTER_NAME":"EARTH","COUNTRY_CODE":"US","EPHEMERIS_TYPE":"0","ECCENTRICITY":"0.00028260","ELEMENT_SET_NO":"999","EPOCH":"2023-04-30T20:18:57.006432","SEMIMAJOR_AXIS":"6950.202","BSTAR":"-0.00005475700000","RCS_SIZE":"LARGE","PERIOD":"96.107","INCLINATION":"70.0011","MEAN_ANOMALY":"87.5594","ARG_OF_PERICENTER":"272.5242","OBJECT_NAME":"STARLINK-3106","SITE":"AFWTR","PERIAPSIS":"570.103"},{"TIME_SYSTEM":"UTC","CENTER_NAME":"EARTH","GP_ID":"230982862","OBJECT_TYPE":"PAYLOAD","OBJECT_ID":"2021-082AM","APOAPSIS":"573.925","MEAN_MOTION_DDOT":"0.0000000000000","TLE_LINE1":"1 49165U 21082AM  23120.87609722 -.00000011  00000-0  68561-5 0  9991","LAUNCH_DATE":"2021-09-14","CLASSIFICATION_TYPE":"U","NORAD_CAT_ID":"49165","REF_FRAME":"TEME","RA_OF_ASC_NODE":"46.2732","FILE":"3897572","TLE_LINE2":"2 49165  70.0017  46.2732 0002668 270.0502  90.0351 14.98325954 90832","REV_AT_EPOCH":"9083","MEAN_MOTION":"14.98325954","MEAN_MOTION_DOT":"-0.00000011","DECAY_DATE":null,"MEAN_ELEMENT_THEORY":"SGP4","SITE":"AFWTR","PERIAPSIS":"570.216","RCS_SIZE":"LARGE","INCLINATION":"70.0017","PERIOD":"96.107","MEAN_ANOMALY":"90.0351","ARG_OF_PERICENTER":"270.0502","OBJECT_NAME":"STARLINK-3052","ECCENTRICITY":"0.00026680","ELEMENT_SET_NO":"999","EPOCH":"2023-04-30T21:01:34.799808","SEMIMAJOR_AXIS":"6950.205","BSTAR":"0.00000685610000","COUNTRY_CODE":"US","EPHEMERIS_TYPE":"0"},{"EPHEMERIS_TYPE":"0","COUNTRY_CODE":"US","BSTAR":"0.00004061800000","SEMIMAJOR_AXIS":"6950.190","ECCENTRICITY":"0.00032340","EPOCH":"2023-04-30T14:00:24.860448","ELEMENT_SET_NO":"999","ARG_OF_PERICENTER":"266.1028","OBJECT_NAME":"STARLINK-3089","PERIOD":"96.107","INCLINATION":"70.0028","MEAN_ANOMALY":"93.9762","RCS_SIZE":"LARGE","PERIAPSIS":"569.807","SITE":"AFWTR","MEAN_ELEMENT_THEORY":"SGP4","MEAN_MOTION_DOT":"0.00000392","DECAY_DATE":null,"REV_AT_EPOCH":"9127","TLE_LINE2":"2 49166  70.0028  27.0205 0003234 266.1028  93.9762 14.98331075 91274","MEAN_MOTION":"14.98331075","RA_OF_ASC_NODE":"27.0205","FILE":"3897442","REF_FRAME":"TEME","NORAD_CAT_ID":"49166","LAUNCH_DATE":"2021-09-14","TLE_LINE1":"1 49166U 21082AN  23120.58362107  .00000392  00000-0  40618-4 0  9996","CLASSIFICATION_TYPE":"U","OBJECT_ID":"2021-082AN","APOAPSIS":"574.302","MEAN_MOTION_DDOT":"0.0000000000000","GP_ID":"230975854","OBJECT_TYPE":"PAYLOAD","TIME_SYSTEM":"UTC","CENTER_NAME":"EARTH"},{"SITE":"AFWTR","PERIAPSIS":"570.225","RCS_SIZE":"LARGE","INCLINATION":"70.0019","PERIOD":"96.107","MEAN_ANOMALY":"88.3355","ARG_OF_PERICENTER":"271.7502","OBJECT_NAME":"STARLINK-3054","ECCENTRICITY":"0.00026360","EPOCH":"2023-04-30T20:55:20.137440","ELEMENT_SET_NO":"999","SEMIMAJOR_AXIS":"6950.192","BSTAR":"0.00002073700000","COUNTRY_CODE":"US","EPHEMERIS_TYPE":"0","TIME_SYSTEM":"UTC","CENTER_NAME":"EARTH","GP_ID":"230982542","OBJECT_TYPE":"PAYLOAD","OBJECT_ID":"2021-082AP","MEAN_MOTION_DDOT":"0.0000000000000","APOAPSIS":"573.889","TLE_LINE1":"1 49167U 21082AP  23120.87176085  .00000155  00000-0  20737-4 0  9994","CLASSIFICATION_TYPE":"U","LAUNCH_DATE":"2021-09-14","NORAD_CAT_ID":"49167","REF_FRAME":"TEME","RA_OF_ASC_NODE":"46.2880","FILE":"3897559","REV_AT_EPOCH":"9083","TLE_LINE2":"2 49167  70.0019  46.2880 0002636 271.7502  88.3355 14.98330157 90838","MEAN_MOTION":"14.98330157","MEAN_MOTION_DOT":"0.00000155","DECAY_DATE":null,"MEAN_ELEMENT_THEORY":"SGP4"},{"BSTAR":"0.00007575900000","EPOCH":"2023-04-30T20:00:55.373472","ELEMENT_SET_NO":"999","ECCENTRICITY":"0.00029210","SEMIMAJOR_AXIS":"6950.211","COUNTRY_CODE":"US","EPHEMERIS_TYPE":"0","PERIAPSIS":"570.046","SITE":"AFWTR","OBJECT_NAME":"STARLINK-3101","ARG_OF_PERICENTER":"272.3602","RCS_SIZE":"LARGE","MEAN_ANOMALY":"87.7223","INCLINATION":"70.0016","PERIOD":"96.107","REF_FRAME":"TEME","DECAY_DATE":null,"MEAN_MOTION_DOT":"0.00000811","MEAN_ELEMENT_THEORY":"SGP4","FILE":"3897581","RA_OF_ASC_NODE":"26.3804","MEAN_MOTION":"14.98324138","REV_AT_EPOCH":"9131","TLE_LINE2":"2 49168  70.0016  26.3804 0002921 272.3602  87.7223 14.98324138 91319","TIME_SYSTEM":"UTC","CENTER_NAME":"EARTH","TLE_LINE1":"1 49168U 21082AQ  23120.83397423  .00000811  00000-0  75759-4 0  9995","CLASSIFICATION_TYPE":"U","LAUNCH_DATE":"2021-09-14","NORAD_CAT_ID":"49168","OBJECT_TYPE":"PAYLOAD","GP_ID":"230983553","MEAN_MOTION_DDOT":"0.0000000000000","APOAPSIS":"574.106","OBJECT_ID":"2021-082AQ"},{"EPHEMERIS_TYPE":"0","COUNTRY_CODE":"US","SEMIMAJOR_AXIS":"6950.213","ECCENTRICITY":"0.00028590","EPOCH":"2023-04-30T20:12:56.635488","ELEMENT_SET_NO":"999","BSTAR":"0.00002509800000","INCLINATION":"70.0014","PERIOD":"96.107","MEAN_ANOMALY":"89.5348","RCS_SIZE":"LARGE","ARG_OF_PERICENTER":"270.5483","OBJECT_NAME":"STARLINK-3046","SITE":"AFWTR","PERIAPSIS":"570.091","REV_AT_EPOCH":"9132","TLE_LINE2":"2 49169  70.0014  26.3772 0002859 270.5483  89.5348 14.98323443 91326","MEAN_MOTION":"14.98323443","RA_OF_ASC_NODE":"26.3772","FILE":"3897589","MEAN_ELEMENT_THEORY":"SGP4","MEAN_MOTION_DOT":"0.00000206","DECAY_DATE":null,"REF_FRAME":"TEME","OBJECT_ID":"2021-082AR","MEAN_MOTION_DDOT":"0.0000000000000","APOAPSIS":"574.065","GP_ID":"230983309","OBJECT_TYPE":"PAYLOAD","NORAD_CAT_ID":"49169","TLE_LINE1":"1 49169U 21082AR  23120.84232217  .00000206  00000-0  25098-4 0  9995","CLASSIFICATION_TYPE":"U","LAUNCH_DATE":"2021-09-14","TIME_SYSTEM":"UTC","CENTER_NAME":"EARTH"},{"REF_FRAME":"TEME","FILE":"3897595","RA_OF_ASC_NODE":"46.3538","MEAN_MOTION":"14.98330501","REV_AT_EPOCH":"8962","TLE_LINE2":"2 49170  70.0011  46.3538 0002765 266.1780  93.9063 14.98330501 89620","DECAY_DATE":null,"MEAN_MOTION_DOT":"-0.00000160","MEAN_ELEMENT_THEORY":"SGP4","CENTER_NAME":"EARTH","TIME_SYSTEM":"UTC","OBJECT_TYPE":"PAYLOAD","GP_ID":"230983775","APOAPSIS":"573.978","MEAN_MOTION_DDOT":"0.0000000000000","OBJECT_ID":"2021-082AS","LAUNCH_DATE":"2021-09-14","TLE_LINE1":"1 49170U 21082AS  23120.84672309 -.00000160  00000-0 -56494-5 0  9993","CLASSIFICATION_TYPE":"U","NORAD_CAT_ID":"49170","ELEMENT_SET_NO":"999","EPOCH":"2023-04-30T20:19:16.874976","ECCENTRICITY":"0.00027650","SEMIMAJOR_AXIS":"6950.191","BSTAR":"-0.00000564940000","COUNTRY_CODE":"US","EPHEMERIS_TYPE":"0","SITE":"AFWTR","PERIAPSIS":"570.135","RCS_SIZE":"LARGE","MEAN_ANOMALY":"93.9063","PERIOD":"96.107","INCLINATION":"70.0011","OBJECT_NAME":"STARLINK-3074","ARG_OF_PERICENTER":"266.1780"},{"PERIAPSIS":"570.166","SITE":"AFWTR","ARG_OF_PERICENTER":"263.5635","OBJECT_NAME":"STARLINK-3107","RCS_SIZE":"LARGE","INCLINATION":"70.0021","PERIOD":"96.107","MEAN_ANOMALY":"96.5214","BSTAR":"-0.00003988200000","ECCENTRICITY":"0.00027280","EPOCH":"2023-04-30T20:43:33.278304","ELEMENT_SET_NO":"999","SEMIMAJOR_AXIS":"6950.197","COUNTRY_CODE":"US","EPHEMERIS_TYPE":"0","CENTER_NAME":"EARTH","TIME_SYSTEM":"UTC","TLE_LINE1":"1 49171U 21082AT  23120.86357961 -.00000569  00000-0 -39882-4 0  9994","CLASSIFICATION_TYPE":"U","LAUNCH_DATE":"2021-09-14","NORAD_CAT_ID":"49171","GP_ID":"230983887","OBJECT_TYPE":"PAYLOAD","OBJECT_ID":"2021-082AT","MEAN_MOTION_DDOT":"0.0000000000000","APOAPSIS":"573.958","REF_FRAME":"TEME","MEAN_MOTION_DOT":"-0.00000569","DECAY_DATE":null,"MEAN_ELEMENT_THEORY":"SGP4","RA_OF_ASC_NODE":"46.3037","FILE":"3897611","REV_AT_EPOCH":"9078","TLE_LINE2":"2 49171  70.0021  46.3037 0002728 263.5635  96.5214 14.98328618 90787","MEAN_MOTION":"14.98328618"},{"REF_FRAME":"TEME","MEAN_ELEMENT_THEORY":"SGP4","MEAN_MOTION_DOT":"0.00000348","DECAY_DATE":null,"TLE_LINE2":"2 49172  70.0012  26.2781 0002841 262.9364  97.1472 14.98325060 90117","REV_AT_EPOCH":"9011","MEAN_MOTION":"14.98325060","RA_OF_ASC_NODE":"26.2781","FILE":"3897607","CENTER_NAME":"EARTH","TIME_SYSTEM":"UTC","NORAD_CAT_ID":"49172","TLE_LINE1":"1 49172U 21082AU  23120.87570036  .00000348  00000-0  36970-4 0  9994","CLASSIFICATION_TYPE":"U","LAUNCH_DATE":"2021-09-14","OBJECT_ID":"2021-082AU","APOAPSIS":"574.048","MEAN_MOTION_DDOT":"0.0000000000000","GP_ID":"230983476","OBJECT_TYPE":"PAYLOAD","BSTAR":"0.00003697000000","SEMIMAJOR_AXIS":"6950.208","ECCENTRICITY":"0.00028410","EPOCH":"2023-04-30T21:01:00.511104","ELEMENT_SET_NO":"999","EPHEMERIS_TYPE":"0","COUNTRY_CODE":"US","PERIAPSIS":"570.099","SITE":"AFWTR","ARG_OF_PERICENTER":"262.9364","OBJECT_NAME":"STARLINK-3091","INCLINATION":"70.0012","PERIOD":"96.107","MEAN_ANOMALY":"97.1472","RCS_SIZE":"LARGE"}];
